NORAD_CAT_ID,OBJECT_NAME,OBJECT_TYPE,EPOCH,MEAN_MOTION,ECCENTRICITY,INCLINATION,RA_OF_ASC_NODE,ARG_OF_PERICENTER,MEAN_ANOMALY,BSTAR,MEAN_MOTION_DOT,MEAN_MOTION_DDOT,TLE_LINE0,TLE_LINE1,TLE_LINE2,SEMIMAJOR_AXIS,PERIOD,APOGEE,PERIGEE,DECAYED
52859.0,STARLINK-4196,PAYLOAD,2022-09-10 14:00:01,15.08835667,0.0001575999999999,53.2163,352.7734,58.6991,55.0679,-0.00051451,-8.466e-05,0.0,0 STARLINK-4196,1 52859U 22062AF  22253.58334491 -.00008466  00000-0 -51451-3 0  9997,2 52859  53.2163 352.7734 0001576  58.6991  55.0679 15.08835667 13767,6917.894,95.438,540.849,538.668,0.0
52859.0,STARLINK-4196,PAYLOAD,2022-09-10 22:00:00,15.08849802,0.0001557,53.2162,351.2765,59.5963,65.7559,-0.0030675,-0.0004878999999999,0.0,0 STARLINK-4196,1 52859U 22062AF  22253.91667824 -.00048790  00000-0 -30675-2 0  9991,2 52859  53.2162 351.2765 0001557  59.5963  65.7559 15.08849802  1300,6917.85,95.437,540.793,538.638,0.0
52859.0,STARLINK-4196,PAYLOAD,2022-09-11 14:00:01,15.08832382,0.0001617,53.2163,348.2846,59.864,88.6603,0.00046875,7.178e-05,0.0,0 STARLINK-4196,1 52859U 22062AF  22254.58334491  .00007178  00000-0  46875-3 0  9999,2 52859  53.2163 348.2846 0001617  59.8640  88.6603 15.08832382  1308,6917.904,95.438,540.887,538.65,0.0
52859.0,STARLINK-4196,PAYLOAD,2022-09-11 22:00:00,15.0887285,0.0001478,53.216,346.7874,59.6519,100.4656,-0.0044467,-0.00070429,0.0,0 STARLINK-4196,1 52859U 22062AF  22254.91667824 -.00070429  00000-0 -44467-2 0  9990,2 52859  53.2160 346.7874 0001478  59.6519 100.4656 15.08872850  1302,6917.78,95.435,540.6669999999998,538.623,0.0
52859.0,STARLINK-4196,PAYLOAD,2022-09-12 12:00:00,15.08848902,0.0001472,53.2158,344.1695,59.0265,31.3868,-0.0007059,-0.00011508,0.0,0 STARLINK-4196,1 52859U 22062AF  22255.50001157 -.00011508  00000-0 -70590-3 0  9997,2 52859  53.2158 344.1695 0001472  59.0265  31.3868 15.08848902 14052,6917.853,95.437,540.736,538.7,0.0
52859.0,STARLINK-4196,PAYLOAD,2022-09-12 14:00:01,15.08840904,0.0001519,53.2159,343.7957,57.4601,125.8557,0.00034437,5.197e-05,0.0,0 STARLINK-4196,1 52859U 22062AF  22255.58334491  .00005197  00000-0  34437-3 0  9990,2 52859  53.2159 343.7957 0001519  57.4601 125.8557 15.08840904  1309,6917.878000000002,95.437,540.793,538.692,0.0
52859.0,STARLINK-4196,PAYLOAD,2022-09-12 22:00:00,15.08868999,0.0001554999999999,53.2161,342.3001,58.2582,136.6525,-0.0051818,-0.00081885,0.0,0 STARLINK-4196,1 52859U 22062AF  22255.91667824 -.00081885  00000-0 -51818-2 0  9997,2 52859  53.2161 342.3001 0001555  58.2582 136.6525 15.08868999  1303,6917.792,95.436,540.732,538.581,0.0
52859.0,STARLINK-4196,PAYLOAD,2022-09-13 14:00:01,15.08818768,0.0001703,53.2152,339.3066,60.3106,157.8205,0.0016896,0.00026689,0.0,0 STARLINK-4196,1 52859U 22062AF  22256.58334491  .00026689  00000-0  16896-2 0  9998,2 52859  53.2152 339.3066 0001703  60.3106 157.8205 15.08818768  1300,6917.945,95.439,540.988,538.632,0.0
52859.0,STARLINK-4196,PAYLOAD,2022-09-13 16:00:00,15.08818877,0.0001688,53.2153,338.9335,58.7456,252.2804,0.0020137,0.00031887,0.0,0 STARLINK-4196,1 52859U 22062AF  22256.66667824  .00031887  00000-0  20137-2 0  9995,2 52859  53.2153 338.9335 0001688  58.7456 252.2804 15.08818877 14238,6917.945,95.439,540.9780000000002,538.6419999999998,0.0
52859.0,STARLINK-4196,PAYLOAD,2022-09-13 22:00:00,15.08865675,0.0001573,53.2159,337.8109,59.9202,169.787,-0.0061223,-0.00096489,0.0,0 STARLINK-4196,1 52859U 22062AF  22256.91667824 -.00096489  00000-0 -61223-2 0  9995,2 52859  53.2159 337.8109 0001573  59.9202 169.7870 15.08865675  1303,6917.802,95.436,540.755,538.5790000000002,0.0
52859.0,STARLINK-4196,PAYLOAD,2022-09-14 06:00:00,15.08821942,0.0001513,53.215,336.3123,67.7684,173.5005,0.0012303,0.00019337,0.0,0 STARLINK-4196,1 52859U 22062AF  22257.25001157  .00019337  00000-0  12303-2 0  9994,2 52859  53.2150 336.3123 0001513  67.7684 173.5005 15.08821942 14327,6917.936,95.439,540.847,538.754,0.0
52859.0,STARLINK-4196,PAYLOAD,2022-09-14 14:00:01,15.08882535,0.0001539,53.2169,334.8211,61.3572,191.454,-0.0032762,-0.00052112,0.0,0 STARLINK-4196,1 52859U 22062AF  22257.58334491 -.00052112  00000-0 -32762-2 0  9991,2 52859  53.2169 334.8211 0001539  61.3572 191.4540 15.08882535  1304,6917.75,95.435,540.68,538.5509999999998,0.0
52859.0,STARLINK-4196,PAYLOAD,2022-09-14 22:00:00,15.08851195,0.0001554,53.2144,333.3194,61.1098,203.3582,-0.0011482999999999,-0.00018522,0.0,0 STARLINK-4196,1 52859U 22062AF  22257.91667824 -.00018522  00000-0 -11483-2 0  9991,2 52859  53.2144 333.3194 0001554  61.1098 203.3582 15.08851195  1306,6917.846,95.437,540.786,538.636,0.0
52859.0,STARLINK-4196,PAYLOAD,2022-09-15 14:00:01,15.08818508,0.0001801,53.2145,330.3276,59.4019,228.2696,0.0026616,0.00042301,0.0,0 STARLINK-4196,1 52859U 22062AF  22258.58334491  .00042301  00000-0  26616-2 0  9990,2 52859  53.2145 330.3276 0001801  59.4019 228.2696 15.08818508  1306,6917.946,95.439,541.057,538.565,0.0
52859.0,STARLINK-4196,PAYLOAD,2022-09-15 22:00:00,15.08860457,0.0001644,53.2145,328.8297,60.3633,238.8956,-0.0033453,-0.00053166,0.0,0 STARLINK-4196,1 52859U 22062AF  22258.91667824 -.00053166  00000-0 -33453-2 0  9996,2 52859  53.2145 328.8297 0001644  60.3633 238.8956 15.08860457  1305,6917.818,95.436,540.82,538.5459999999998,0.0
52859.0,STARLINK-4196,PAYLOAD,2022-09-16 02:00:01,15.08819768,0.0001588,53.2156,328.0827,62.4418,62.6242,0.00075146,0.00011685,0.0,0 STARLINK-4196,1 52859U 22062AF  22259.08334491  .00011685  00000-0  75146-3 0  9990,2 52859  53.2156 328.0827 0001588  62.4418  62.6242 15.08819768 14606,6917.941999999999,95.439,540.906,538.7090000000002,0.0
52859.0,STARLINK-4196,PAYLOAD,2022-09-16 14:00:01,15.08818814,0.0001763,53.2147,325.8381,56.0033,266.4374,0.0027041,0.00042986,0.0,0 STARLINK-4196,1 52859U 22062AF  22259.58334491  .00042986  00000-0  27041-2 0  9993,2 52859  53.2147 325.8381 0001763  56.0033 266.4374 15.08818814  1307,6917.945,95.439,541.03,538.591,0.0
52859.0,STARLINK-4196,PAYLOAD,2022-09-16 22:00:00,15.08853333,0.0001597,53.2149,324.3401,57.5898,276.4404,-0.0029216999999999,-0.00046504,0.0,0 STARLINK-4196,1 52859U 22062AF  22259.91667824 -.00046504  00000-0 -29217-2 0  9998,2 52859  53.2149 324.3401 0001597  57.5898 276.4404 15.08853333  1306,6917.84,95.437,540.809,538.6,0.0
52859.0,STARLINK-4196,PAYLOAD,2022-09-17 06:00:00,15.08840638,0.0001576999999999,53.2151,322.8435,60.3516,285.265,-4.664e-05,-1.03e-05,0.0,0 STARLINK-4196,1 52859U 22062AF  22260.25001157 -.00001030  00000-0 -46640-4 0  9994,2 52859  53.2151 322.8435 0001577  60.3516 285.2650 15.08840638 14776,6917.878000000002,95.438,540.8340000000002,538.6519999999998,0.0
52859.0,STARLINK-4196,PAYLOAD,2022-09-17 14:00:01,15.08818433,0.0001699,53.2152,321.3486,52.6657,304.5435,0.0021119,0.00033463,0.0,0 STARLINK-4196,1 52859U 22062AF  22260.58334491  .00033463  00000-0  21119-2 0  9995,2 52859  53.2152 321.3486 0001699  52.6657 304.5435 15.08818433  1301,6917.946,95.439,540.987,538.636,0.0
52859.0,STARLINK-4196,PAYLOAD,2022-09-17 22:00:00,15.08833319,0.0001527,53.2153,319.8506,55.4175,313.3832,-0.0014827,-0.00023803,0.0,0 STARLINK-4196,1 52859U 22062AF  22260.91667824 -.00023803  00000-0 -14827-2 0  9998,2 52859  53.2153 319.8506 0001527  55.4175 313.3832 15.08833319  1302,6917.901,95.438,540.822,538.7090000000002,0.0
52859.0,STARLINK-4196,PAYLOAD,2022-09-18 14:00:01,15.08811228,0.0001655,53.2154,316.8593,50.0841,341.9453,0.0030482,0.0004852,0.0,0 STARLINK-4196,1 52859U 22062AF  22261.58335648  .00048520  00000-0  30482-2 0  9994,2 52859  53.2154 316.8593 0001655  50.0841 341.9453 15.08811228 14977,6917.968000000003,95.439,540.9780000000002,538.688,0.0
52859.0,STARLINK-4196,PAYLOAD,2022-09-18 22:00:00,15.08838218,0.0001499,53.2154,315.3613,54.9771,348.5798,0.00081808,0.00012755,0.0,0 STARLINK-4196,1 52859U 22062AF  22261.91667824  .00012755  00000-0  81808-3 0  9995,2 52859  53.2154 315.3613 0001499  54.9771 348.5798 15.08838218  1301,6917.886,95.438,540.788,538.714,0.0
52859.0,STARLINK-4196,PAYLOAD,2022-09-19 06:00:02,15.08895721,0.0001544,53.2168,313.868,54.8379,0.3678,-0.0084003,-0.00131744,0.0,0 STARLINK-4196,1 52859U 22062AF  22262.25002315 -.00131744  00000-0 -84003-2 0  9992,2 52859  53.2168 313.8680 0001544  54.8379   0.3678 15.08895721 15078,6917.71,95.434,540.643,538.507,0.0
52859.0,STARLINK-4196,PAYLOAD,2022-09-19 14:00:01,15.08805326,0.0001547,53.2152,312.3702,46.4781,20.2894,0.0031306999999999,0.00049842,0.0,0 STARLINK-4196,1 52859U 22062AF  22262.58334491  .00049842  00000-0  31307-2 0  9995,2 52859  53.2152 312.3702 0001547  46.4781  20.2894 15.08805326 15126,6917.986,95.44,540.922,538.781,0.0
52859.0,STARLINK-4196,PAYLOAD,2022-09-19 22:00:00,15.08825571,0.0001379,53.2152,310.8721,52.6483,25.7017,0.0012582,0.00019785,0.0,0 STARLINK-4196,1 52859U 22062AF  22262.91667824  .00019785  00000-0  12582-2 0  9998,2 52859  53.2152 310.8721 0001379  52.6483  25.7017 15.08825571  1307,6917.924,95.438,540.743,538.836,0.0
52859.0,STARLINK-4196,PAYLOAD,2022-09-20 06:00:00,15.088617800000002,0.0001439,53.2151,309.3762,54.3731,35.5607,-0.0012455,-0.00020067,0.0,0 STARLINK-4196,1 52859U 22062AF  22263.25001157 -.00020067  00000-0 -12455-2 0  9993,2 52859  53.2151 309.3762 0001439  54.3731  35.5607 15.08861780 15228,6917.814,95.436,540.674,538.683,0.0
52859.0,STARLINK-4196,PAYLOAD,2022-09-20 14:00:01,15.08837684,0.0001607,53.2147,307.8811,48.0835,53.463,0.00023945,3.525e-05,0.0,0 STARLINK-4196,1 52859U 22062AF  22263.58334491  .00003525  00000-0  23945-3 0  9994,2 52859  53.2147 307.8811 0001607  48.0835  53.4630 15.08837684  1308,6917.887,95.438,540.864,538.641,0.0
52859.0,STARLINK-4196,PAYLOAD,2022-09-20 22:00:01,15.08815313,0.0001486,53.2146,306.3829,56.1863,57.0268,0.0016495999999999,0.00026045,0.0,0 STARLINK-4196,1 52859U 22062AF  22263.91668981  .00026045  00000-0  16496-2 0  9999,2 52859  53.2146 306.3829 0001486  56.1863  57.0268 15.08815313  1308,6917.956,95.439,540.849,538.793,0.0
